COMMENT,ORIGINATOR,NORAD_CAT_ID,OBJECT_NAME,OBJECT_TYPE,CLASSIFICATION_TYPE,INTLDES,EPOCH,EPOCH_MICROSECONDS,MEAN_MOTION,ECCENTRICITY,INCLINATION,RA_OF_ASC_NODE,ARG_OF_PERICENTER,MEAN_ANOMALY,EPHEMERIS_TYPE,ELEMENT_SET_NO,REV_AT_EPOCH,BSTAR,MEAN_MOTION_DOT,MEAN_MOTION_DDOT,FILE,TLE_LINE0,TLE_LINE1,TLE_LINE2,OBJECT_ID,OBJECT_NUMBER,SEMIMAJOR_AXIS,PERIOD,APOGEE,PERIGEE
"GENERATED VIA SPACETRACK.ORG API","JSPOC","28924","EUTE 172A (GE 23)","PAYLOAD","U","05052A","2016-01-10 20:26:25","334304","1.00272223","0.000635","0.0643","20.5778","267.6521","300.166","0","999","3677","0","-3e-08","0","1978688","0 EUTE 172A (GE 23)","1 28924U 05052A   16010.85168211 -.00000003  00000-0  00000+0 0  9990","2 28924   0.0643  20.5778 0006350 267.6521 300.1660  1.00272223 36770","2005-052A","28924","42164.609","1436.090","35813.248","35759.699"
"GENERATED VIA SPACETRACK.ORG API","JSPOC","23413","TELSTAR 11 (ORION 1)","PAYLOAD","U","94079A","2016-01-10 20:26:25","334304","0.98583438","0.0020228","9.7528","44.7451","273.316","271.3161","0","999","7639","0","-2.14e-06","0","1979034","0 TELSTAR 11 (ORION 1)","1 23413U 94079A   16010.85168211 -.00000214 +00000-0 +00000-0 0  9990","2 23413 009.7528 044.7451 0020228 273.3160 271.3161 00.98583438076391","1994-079A","23413","42644.779","1460.691","36352.905","36180.382"
"GENERATED VIA SPACETRACK.ORG API","JSPOC","21783","COSMOS 2169","PAYLOAD","U","91077E","2016-01-10 20:26:28","263264","12.66216202","0.0018454","82.6049","129.2854","36.837","128.5201","0","999","11654","7.4991e-06","1.2e-07","0","1979034","0 COSMOS 2169","1 21783U 91077E   16010.85171601 +.00000012 +00000-0 +74991-5 0  9990","2 21783 082.6049 129.2854 0018454 036.8370 128.5201 12.66216202116546","1991-077E","21783","7775.528","113.724","1411.742","1383.044"
"GENERATED VIA SPACETRACK.ORG API","JSPOC","39022","YAMAL 402","PAYLOAD","U","12070A","2016-01-10 20:26:40","118208","1.0027292","7.2e-05","0.0292","281.8401","93.8764","95.6642","0","999","1139","0.0001","8.8e-07","0","1979034","0 YAMAL 402","1 39022U 12070A   16010.85185322 +.00000088 +00000-0 +10000-3 0  9998","2 39022 000.0292 281.8401 0000720 093.8764 095.6642 01.00272920011390","2012-070A","39022","42164.413","1436.080","35789.314","35783.242"
"GENERATED VIA SPACETRACK.ORG API","JSPOC","18161","SL-8 R/B","ROCKET BODY","U","87057B","2016-01-10 20:26:41","845344","13.76914167","0.0030535","82.9353","101.3815","340.4686","148.7606","0","999","41194","3.8679e-05","5.3e-07","0","1979034","0 SL-8 R/B","1 18161U 87057B   16010.85187321 +.00000053 +00000-0 +38679-4 0  9992","2 18161 082.9353 101.3815 0030535 340.4686 148.7606 13.76914167411941","1987-057B","18161","7352.989","104.581","997.306","952.401"
"GENERATED VIA SPACETRACK.ORG API","JSPOC","25652","GLOBALSTAR M037","PAYLOAD","U","99012D","2016-01-10 20:26:47","642784","12.62283317","0.0002748","51.9986","234.5451","101.0864","323.4955","0","999","77621","0.00043873","-2.5e-07","0","1979034","0 GLOBALSTAR M037","1 25652U 99012D   16010.85194031 -.00000025 +00000-0 +43873-3 0  9996","2 25652 051.9986 234.5451 0002748 101.0864 323.4955 12.62283317776214","1999-012D","25652","7791.671","114.078","1415.677","1411.394"
"GENERATED VIA SPACETRACK.ORG API","JSPOC","21151","INMARSAT 2-F2 R/B(PAM-D)","ROCKET BODY","U","91018C","2016-01-10 20:26:50","106048","6.82467062","0.4326856","23.2504","90.955","256.6382","52.9338","0","999","46788","0.00099967","0.00012055","0","1979034","0 INMARSAT 2-F2 R/B(PAM-D)","1 21151U 91018C   16010.85196882 +.00012055 +00000-0 +99967-3 0  9990","2 21151 023.2504 090.9550 4326856 256.6382 052.9338 06.82467062467886","1991-018C","21151","11740.340","210.999","10442.082","282.329"
"GENERATED VIA SPACETRACK.ORG API","JSPOC","26762","BLOCK DM-SL R/B","ROCKET BODY","U","01018B","2016-01-10 20:26:51","111744","2.23849666","0.7064904","1.4423","346.4214","303.9575","209.7667","0","999","12007","-0.0023052","-1.67e-06","0","1979034","0 BLOCK DM-SL R/B","1 26762U 01018B   16010.85198046 -.00000167 +00000-0 -23052-2 0  9992","2 26762 001.4423 346.4214 7064904 303.9575 209.7667 02.23849666120078","2001-018B","26762","24684.871","643.288","35746.361","867.111"
"GENERATED VIA SPACETRACK.ORG API","JSPOC","29228","RESURS DK-1","PAYLOAD","U","06021A","2016-01-10 20:26:52","175328","15.01728188","0.0002048","69.9376","349.1937","26.4959","333.6325","0","999","52952","4.2147e-05","4.53e-06","0","1978652","0 RESURS DK-1","1 29228U 06021A   16010.85199277  .00000453  00000-0  42147-4 0  9992","2 29228  69.9376 349.1937 0002048  26.4959 333.6325 15.01728188529529","2006-021A","29228","6939.704","95.889","562.990","560.147"
"GENERATED VIA SPACETRACK.ORG API","JSPOC","15471","COSMOS 1619","PAYLOAD","U","85003C","2016-01-10 20:26:55","378176","12.66184113","0.002103","82.609","321.9883","100.8427","287.5367","0","999","43182","-2.3742e-05","6e-08","0","1979034","0 COSMOS 1619","1 15471U 85003C   16010.85202984 +.00000006 +00000-0 -23742-4 0  9999","2 15471 082.6090 321.9883 0021030 100.8427 287.5367 12.66184113431826","1985-003C","15471","7775.660","113.727","1413.877","1381.172"
"GENERATED VIA SPACETRACK.ORG API","JSPOC","40076","TDS 1","PAYLOAD","U","14037H","2016-01-10 20:26:57","163200","14.81101396","0.0005371","98.3339","95.7477","326.444","33.6419","0","999","8155","3.7273e-05","2.32e-06","0","1978683","0 TDS 1","1 40076U 14037H   16010.85205050  .00000232  00000-0  37273-4 0  9998","2 40076  98.3339  95.7477 0005371 326.4440  33.6419 14.81101396 81551","2014-037H","40076","7003.986","97.224","629.613","622.089"
"GENERATED VIA SPACETRACK.ORG API","JSPOC","8609","COSMOS 793","PAYLOAD","U","76008C","2016-01-10 20:27:03","528288","12.52591287","0.0046352","74.0564","283.3548","6.7452","104.229","0","999","82680","0.0001444","7e-08","0","1979034","0 COSMOS 793","1  8609U 76008C   16010.85212417 +.00000007 +00000-0 +14440-3 0  9995","2  8609 074.0564 283.3548 0046352 006.7452 104.2290 12.52591287826802","1976-008C","8609","7831.811","114.961","1489.978","1417.374"
"GENERATED VIA SPACETRACK.ORG API","JSPOC","15698","COSMOS 1651 (GLONASS)","PAYLOAD","U","85037B","2016-01-10 20:27:06","443424","2.13126602","0.001276","64.0982","203.8199","12.8205","332.5287","0","999","23857","0","9.9e-07","0","1979034","0 COSMOS 1651 (GLONASS)","1 15698U 85037B   16010.85215791 +.00000099 +00000-0 +00000-0 0  9996","2 15698 064.0982 203.8199 0012760 012.8205 332.5287 02.13126602238574","1985-037B","15698","25506.061","675.654","19160.472","19095.380"
"GENERATED VIA SPACETRACK.ORG API","JSPOC","19163","COSMOS 1946 (GLONASS)","PAYLOAD","U","88043A","2016-01-10 20:27:22","711680","2.13102186","0.0005037","64.204","204.05","138.7819","186.2666","0","999","21452","0","9.9e-07","0","1978646","0 COSMOS 1946 (GLONASS)","1 19163U 88043A   16010.85234620  .00000099  00000-0  00000+0 0  9998","2 19163  64.2040 204.0500 0005037 138.7819 186.2666  2.13102186214524","1988-043A","19163","25508.009","675.732","19142.722","19117.026"
"GENERATED VIA SPACETRACK.ORG API","JSPOC","19785","COSMOS 1994","PAYLOAD","U","89009A","2016-01-10 20:27:24","202080","12.64268324","0.0013632","82.6207","258.0363","347.3671","140.92","0","999","24188","0.00013173","3.5e-07","0","1979034","0 COSMOS 1994","1 19785U 89009A   16010.85236345 +.00000035 +00000-0 +13173-3 0  9996","2 19785 082.6207 258.0363 0013632 347.3671 140.9200 12.64268324241887","1989-009A","19785","7783.513","113.899","1415.988","1394.767"
"GENERATED VIA SPACETRACK.ORG API","JSPOC","39252","BREEZE-KM R/B","ROCKET BODY","U","13048D","2016-01-10 20:27:27","269280","12.7989849","0.022198","82.4848","161.0971","82.8174","279.8105","0","999","10884","-6.3506e-05","-3e-08","0","1978644","0 BREEZE-KM R/B","1 39252U 13048D   16010.85239895 -.00000003  00000-0 -63506-4 0  9993","2 39252  82.4848 161.0971 0221980  82.8174 279.8105 12.79898490108844","2013-048D","39252","7720.015","112.508","1513.249","1170.511"
"GENERATED VIA SPACETRACK.ORG API","JSPOC","5615","SL-8 R/B","ROCKET BODY","U","71099B","2016-01-10 20:27:34","742016","13.17592231","0.0022286","74.0314","247.7565","157.0939","258.0678","0","999","12286","-2.3862e-05","-2.8e-07","0","1979034","0 SL-8 R/B","1  5615U 71099B   16010.85248544 -.00000028 +00000-0 -23862-4 0  9998","2  5615 074.0314 247.7565 0022286 157.0939 258.0678 13.17592231122867","1971-099B","5615","7572.067","109.290","1210.807","1177.057"
"GENERATED VIA SPACETRACK.ORG API","JSPOC","15332","SL-14 R/B","ROCKET BODY","U","84105B","2016-01-10 20:27:36","967680","14.83191093","0.0019835","82.5363","317.2037","298.2139","89.7035","0","999","68901","2.2597e-05","2.09e-06","0","1978722","0 SL-14 R/B","1 15332U 84105B   16010.85251120  .00000209  00000-0  22597-4 0  9994","2 15332  82.5363 317.2037 0019835 298.2139  89.7035 14.83191093689011","1984-105B","15332","6997.406","97.087","633.150","605.392"
"GENERATED VIA SPACETRACK.ORG API","JSPOC","25560","SWAS","PAYLOAD","U","98071A","2016-01-10 20:27:37","541376","14.92825118","0.0011433","69.899","136.1971","259.6869","100.2997","0","999","92724","9.3152e-05","8.76e-06","0","1979034","0 SWAS","1 25560U 98071A   16010.85251784 +.00000876 +00000-0 +93152-4 0  9996","2 25560 069.8990 136.1971 0011433 259.6869 100.2997 14.92825118927249","1998-071A","25560","6967.268","96.461","597.099","581.167"
"GENERATED VIA SPACETRACK.ORG API","JSPOC","28051","IRS P6","PAYLOAD","U","03046A","2016-01-10 20:27:48","364704","14.21647291","0.0004658","98.6748","90.9068","55.3247","304.8361","0","999","63492","3.0536e-05","2.4e-07","0","1979034","0 IRS P6","1 28051U 03046A   16010.85264311 +.00000024 +00000-0 +30536-4 0  9994","2 28051 098.6748 090.9068 0004658 055.3247 304.8361 14.21647291634927","2003-046A","28051","7197.924","101.290","823.141","816.436"
